{
  "features" : [
    {
      "geometry" : {
        "coordinates" : [
          [
            [
              -71.404292682617381,
              42.537540832617658
            ],
            [
              -71.404250364468254,
              42.537531313736871
            ],
            [
              -71.404231083464566,
              42.537516379204455
            ],
            [
              -71.404223966702332,
              42.537506912430615
            ],
            [
              -71.404217680272708,
              42.537491862090853
            ],
            [
              -71.404215092359166,
              42.537465351250106
            ],
            [
              -71.404215021636773,
              42.537444205874273
            ],
            [
              -71.404225009201951,
              42.537431612444706
            ],
            [
              -71.404240581212136,
              42.537420398982647
            ],
            [
              -71.404273061098721,
              42.537412655709588
            ],
            [
              -71.404305428353481,
              42.537418345432734
            ],
            [
              -71.404335514158191,
              42.537430145623595
            ],
            [
              -71.404360628444707,
              42.537447257247393
            ],
            [
              -71.404375081994246,
              42.537469502737316
            ],
            [
              -71.404375508947638,
              42.537494888371327
            ],
            [
              -71.404366451250226,
              42.537514960636003
            ],
            [
              -71.404347508142152,
              42.53752833184874
            ],
            [
              -71.404323216330198,
              42.537537771598956
            ],
            [
              -71.404295527226807,
              42.537540817177465
            ],
            [
              -71.404292682617381,
              42.537540832617658
            ]
          ]
        ],
        "type" : "Polygon"
      },
      "properties" : {
        "frame" : "apple",
        "hole" : 1,
        "kind" : "tee"
      },
      "type" : "Feature"
    },
    {
      "geometry" : {
        "coordinates" : [
          [
            [
              -71.39941020246097,
              42.535626809148972
            ],
            [
              -71.39935994769067,
              42.535641334956772
            ],
            [
              -71.399327564717353,
              42.535648161660639
            ],
            [
              -71.399293809206867,
              42.535646885875757
            ],
            [
              -71.399253458183395,
              42.535638922352717
            ],
            [
              -71.399222442508659,
              42.535623879281893
            ],
            [
              -71.399209364114625,
              42.535605877388321
            ],
            [
              -71.399203693230717,
              42.535568441462246
            ],
            [
              -71.39922420008979,
              42.535540787191863
            ],
            [
              -71.399254825481862,
              42.535518452229191
            ],
            [
              -71.399290616224206,
              42.535503768125636
            ],
            [
              -71.39934116959995,
              42.535492299544984
            ],
            [
              -71.399375986925335,
              42.535483989984563
            ],
            [
              -71.399429673898254,
              42.535473351059132
            ],
            [
              -71.399488918690906,
              42.53546540394175
            ],
            [
              -71.399529991189567,
              42.535474991645671
            ],
            [
              -71.399567632304937,
              42.535493670935125
            ],
            [
              -71.39959501691169,
              42.535520007195629
            ],
            [
              -71.39961342735613,
              42.535553036539532
            ],
            [
              -71.399608345511353,
              42.535579877539845
            ],
            [
              -71.399582249369502,
              42.535603306433664
            ],
            [
              -71.399552086625889,
              42.535609932929937
            ],
            [
              -71.399497356894216,
              42.53561223366215
            ],
            [
              -71.399474380078573,
              42.535614659481716
            ],
            [
              -71.39941020246097,
              42.535626809148972
            ]
          ]
        ],
        "type" : "Polygon"
      },
      "properties" : {
        "frame" : "apple",
        "hole" : 1,
        "kind" : "green"
      },
      "type" : "Feature"
    },
    {
      "geometry" : {
        "coordinates" : [
          [
            [
              -71.398200761987567,
              42.535820579081161
            ],
            [
              -71.398224949573219,
              42.535856588784867
            ],
            [
              -71.398205300472895,
              42.535891989940865
            ],
            [
              -71.398167329837207,
              42.53590501189219
            ],
            [
              -71.398123384429084,
              42.535900250185712
            ],
            [
              -71.398093798388444,
              42.535878482829709
            ],
            [
              -71.39808707172871,
              42.535844473591744
            ],
            [
              -71.398110486062791,
              42.535807275448434
            ],
            [
              -71.398154087631269,
              42.535795329514407
            ],
            [
              -71.398200761987567,
              42.535820579081161
            ]
          ]
        ],
        "type" : "Polygon"
      },
      "properties" : {
        "frame" : "apple",
        "hole" : 2,
        "kind" : "tee"
      },
      "type" : "Feature"
    },
    {
      "geometry" : {
        "coordinates" : [
          [
            [
              -71.40061143741363,
              42.534171015434396
            ],
            [
              -71.400560769859737,
              42.534177487038697
            ],
            [
              -71.400498506545233,
              42.534160102061669
            ],
            [
              -71.400465457858317,
              42.534148901267102
            ],
            [
              -71.400456891558434,
              42.534127182986502
            ],
            [
              -71.400475355215249,
              42.534104632868747
            ],
            [
              -71.400525402765339,
              42.534087523836725
            ],
            [
              -71.400570541361546,
              42.534073825004356
            ],
            [
              -71.40060148984648,
              42.534056735365574
            ],
            [
              -71.400622617161659,
              42.534025773446359
            ],
            [
              -71.400656286131337,
              42.533987584155803
            ],
            [
              -71.400691036354146,
              42.533972759817189
            ],
            [
              -71.400743308650647,
              42.533976688478688
            ],
            [
              -71.400785578452371,
              42.534009550768005
            ],
            [
              -71.400775481271637,
              42.534047585149388
            ],
            [
              -71.400736882750792,
              42.534103087088283
            ],
            [
              -71.400683659208596,
              42.534144850818073
            ],
            [
              -71.40061143741363,
              42.534171015434396
            ]
          ]
        ],
        "type" : "Polygon"
      },
      "properties" : {
        "frame" : "apple",
        "hole" : 2,
        "kind" : "green"
      },
      "type" : "Feature"
    },
    {
      "geometry" : {
        "coordinates" : [
          [
            [
              -71.402393089961976,
              42.533700538116726
            ],
            [
              -71.402451292422626,
              42.533755179463398
            ],
            [
              -71.402464558667134,
              42.533754654383081
            ],
            [
              -71.402616139265248,
              42.533667956915849
            ],
            [
              -71.402621220076668,
              42.53365300469752
            ],
            [
              -71.402573091341878,
              42.533606892655172
            ],
            [
              -71.402553356303073,
              42.533601330385984
            ],
            [
              -71.402397816050353,
              42.533688544214357
            ],
            [
              -71.402392965155371,
              42.533699114108451
            ],
            [
              -71.402393089961976,
              42.533700538116726
            ]
          ]
        ],
        "type" : "Polygon"
      },
      "properties" : {
        "frame" : "apple",
        "hole" : 3,
        "kind" : "tee"
      },
      "type" : "Feature"
    },
    {
      "geometry" : {
        "coordinates" : [
          [
            [
              -71.400785723575737,
              42.534550668185254
            ],
            [
              -71.400748526423982,
              42.534603090486179
            ],
            [
              -71.400733145739494,
              42.534725267191305
            ],
            [
              -71.400656340479642,
              42.534826446515474
            ],
            [
              -71.400645778939847,
              42.534859523729267
            ],
            [
              -71.400795277469811,
              42.534920961782298
            ],
            [
              -71.400825991943265,
              42.534896224013075
            ],
            [
              -71.400883454935027,
              42.534814101849683
            ],
            [
              -71.400914918433287,
              42.534733998638508
            ],
            [
              -71.400939361963424,
              42.534649595460813
            ],
            [
              -71.400923464625961,
              42.534626121136533
            ],
            [
              -71.400785723575737,
              42.534550668185254
            ]
          ]
        ],
        "type" : "Polygon"
      },
      "properties" : {
        "frame" : "apple",
        "hole" : 3,
        "kind" : "green"
      },
      "type" : "Feature"
    },
    {
      "geometry" : {
        "coordinates" : [
          [
            [
              -71.400215975768731,
              42.535103120475291
            ],
            [
              -71.400245686304629,
              42.535023709215437
            ],
            [
              -71.400333766900943,
              42.535014548363634
            ],
            [
              -71.400376264637828,
              42.535062710371257
            ],
            [
              -71.400344197654803,
              42.535147735240173
            ],
            [
              -71.400304015768143,
              42.535165990022364
            ],
            [
              -71.400215975768731,
              42.535103120475291
            ]
          ]
        ],
        "type" : "Polygon"
      },
      "properties" : {
        "frame" : "apple",
        "hole" : 4,
        "kind" : "tee"
      },
      "type" : "Feature"
    },
    {
      "geometry" : {
        "coordinates" : [
          [
            [
              -71.404450090221374,
              42.53551206965907
            ],
            [
              -71.404343184909237,
              42.535560754432154
            ],
            [
              -71.40436554468242,
              42.535650508172793
            ],
            [
              -71.404514585747151,
              42.535697855796485
            ],
            [
              -71.404652023117606,
              42.535695893900971
            ],
            [
              -71.404743446669656,
              42.535642091410054
            ],
            [
              -71.404758260777569,
              42.535566645865799
            ],
            [
              -71.404703337216176,
              42.535531285761579
            ],
            [
              -71.404450090221374,
              42.53551206965907
            ]
          ]
        ],
        "type" : "Polygon"
      },
      "properties" : {
        "frame" : "apple",
        "hole" : 4,
        "kind" : "green"
      },
      "type" : "Feature"
    },
    {
      "geometry" : {
        "coordinates" : [
          [
            [
              -71.40500503966814,
              42.535770357231165
            ],
            [
              -71.40504745551911,
              42.535647706722905
            ],
            [
              -71.405290367129382,
              42.535666496373942
            ],
            [
              -71.405287397403029,
              42.535834783001967
            ],
            [
              -71.40500503966814,
              42.535770357231165
            ]
          ]
        ],
        "type" : "Polygon"
      },
      "properties" : {
        "frame" : "apple",
        "hole" : 5,
        "kind" : "tee"
      },
      "type" : "Feature"
    },
    {
      "geometry" : {
        "coordinates" : [
          [
            [
              -71.405643719358707,
              42.534904515992025
            ],
            [
              -71.405531932492266,
              42.534840241714733
            ],
            [
              -71.40554887412685,
              42.534781231347793
            ],
            [
              -71.405641569335501,
              42.534724754366763
            ],
            [
              -71.40578213748357,
              42.53473054035851
            ],
            [
              -71.405793989617848,
              42.534828549352206
            ],
            [
              -71.405689651260161,
              42.534902799959035
            ],
            [
              -71.405643719358707,
              42.534904515992025
            ]
          ]
        ],
        "type" : "Polygon"
      },
      "properties" : {
        "frame" : "apple",
        "hole" : 5,
        "kind" : "green"
      },
      "type" : "Feature"
    },
    {
      "geometry" : {
        "coordinates" : [
          [
            [
              -71.406620994796953,
              42.533719379020418
            ],
            [
              -71.40654322199741,
              42.53371371469435
            ],
            [
              -71.406547617732414,
              42.533656264142323
            ],
            [
              -71.406607988153183,
              42.533637277544216
            ],
            [
              -71.406650887548409,
              42.533682498905655
            ],
            [
              -71.406620994796953,
              42.533719379020418
            ]
          ]
        ],
        "type" : "Polygon"
      },
      "properties" : {
        "frame" : "apple",
        "hole" : 6,
        "kind" : "tee"
      },
      "type" : "Feature"
    },
    {
      "geometry" : {
        "coordinates" : [
          [
            [
              -71.402449431309606,
              42.535169510383511
            ],
            [
              -71.402356061824378,
              42.535112403576271
            ],
            [
              -71.402337324511635,
              42.535051537055281
            ],
            [
              -71.402376420370672,
              42.534983923268499
            ],
            [
              -71.402436132039938,
              42.534972732733408
            ],
            [
              -71.402502329875844,
              42.535002963617771
            ],
            [
              -71.402587759456836,
              42.535066528505602
            ],
            [
              -71.402653026325439,
              42.53509897329841
            ],
            [
              -71.402676613867342,
              42.535141873581068
            ],
            [
              -71.402634469181805,
              42.535178605742459
            ],
            [
              -71.402552209719218,
              42.535193188079532
            ],
            [
              -71.402449431309606,
              42.535169510383511
            ]
          ]
        ],
        "type" : "Polygon"
      },
      "properties" : {
        "frame" : "apple",
        "hole" : 6,
        "kind" : "green"
      },
      "type" : "Feature"
    },
    {
      "geometry" : {
        "coordinates" : [
          [
            [
              -71.402025504505062,
              42.534798402275733
            ],
            [
              -71.401953056708834,
              42.534843901983542
            ],
            [
              -71.401881135966647,
              42.534831302887881
            ],
            [
              -71.401864636603207,
              42.534782039066883
            ],
            [
              -71.401938820016937,
              42.534742864923928
            ],
            [
              -71.402003381672401,
              42.53474586966378
            ],
            [
              -71.402027578944754,
              42.534767450130971
            ],
            [
              -71.402025504505062,
              42.534798402275733
            ]
          ]
        ],
        "type" : "Polygon"
      },
      "properties" : {
        "frame" : "apple",
        "hole" : 7,
        "kind" : "tee"
      },
      "type" : "Feature"
    },
    {
      "geometry" : {
        "coordinates" : [
          [
            [
              -71.406659308584167,
              42.532547071511615
            ],
            [
              -71.406634842972338,
              42.532687415014792
            ],
            [
              -71.406685574761227,
              42.532732441951545
            ],
            [
              -71.406739949759171,
              42.53273632582043
            ],
            [
              -71.40680723198804,
              42.53269973321644
            ],
            [
              -71.406830937769413,
              42.532649852862271
            ],
            [
              -71.406895898801082,
              42.532601189497733
            ],
            [
              -71.406955212829374,
              42.53254323883111
            ],
            [
              -71.40696648679814,
              42.532502838214903
            ],
            [
              -71.406937493067872,
              42.532482273823206
            ],
            [
              -71.406846350883555,
              42.532462796256716
            ],
            [
              -71.406740065834853,
              42.532483803467649
            ],
            [
              -71.406659308584167,
              42.532547071511615
            ]
          ]
        ],
        "type" : "Polygon"
      },
      "properties" : {
        "frame" : "apple",
        "hole" : 7,
        "kind" : "green"
      },
      "type" : "Feature"
    },
    {
      "geometry" : {
        "coordinates" : [
          [
            [
              -71.406911485091598,
              42.532139612262078
            ],
            [
              -71.406887216579918,
              42.532089119310484
            ],
            [
              -71.406982935853748,
              42.532075884940369
            ],
            [
              -71.406911485091598,
              42.532139612262078
            ]
          ]
        ],
        "type" : "Polygon"
      },
      "properties" : {
        "frame" : "apple",
        "hole" : 8,
        "kind" : "tee"
      },
      "type" : "Feature"
    },
    {
      "geometry" : {
        "coordinates" : [
          [
            [
              -71.40816458972435,
              42.532933872318537
            ],
            [
              -71.408220626949685,
              42.532966797949285
            ],
            [
              -71.408284906496675,
              42.532977731847758
            ],
            [
              -71.408351382877314,
              42.53297917279297
            ],
            [
              -71.408412149944184,
              42.532999492481181
            ],
            [
              -71.408472850674357,
              42.533028274347004
            ],
            [
              -71.408530687808252,
              42.533032367959116
            ],
            [
              -71.408571403333681,
              42.533005806939087
            ],
            [
              -71.408571897765,
              42.532957691318053
            ],
            [
              -71.40852598519308,
              42.532912385226659
            ],
            [
              -71.408468358508898,
              42.532862356132632
            ],
            [
              -71.40843756242964,
              42.532848292989556
            ],
            [
              -71.408349061083896,
              42.532856818728838
            ],
            [
              -71.408248612720868,
              42.532855578751892
            ],
            [
              -71.408189164084789,
              42.532874823167262
            ],
            [
              -71.408164644264616,
              42.532893199134037
            ],
            [
              -71.40816458972435,
              42.532933872318537
            ]
          ]
        ],
        "type" : "Polygon"
      },
      "properties" : {
        "frame" : "apple",
        "hole" : 8,
        "kind" : "green"
      },
      "type" : "Feature"
    },
    {
      "geometry" : {
        "coordinates" : [
          [
            [
              -71.408601019036837,
              42.533296584139279
            ],
            [
              -71.408599635208446,
              42.533230882713973
            ],
            [
              -71.408690182244001,
              42.533234689008616
            ],
            [
              -71.408671693605243,
              42.533278013181935
            ],
            [
              -71.408601019036837,
              42.533296584139279
            ]
          ]
        ],
        "type" : "Polygon"
      },
      "properties" : {
        "frame" : "apple",
        "hole" : 9,
        "kind" : "tee"
      },
      "type" : "Feature"
    },
    {
      "geometry" : {
        "coordinates" : [
          [
            [
              -71.404784344963801,
              42.537056456171193
            ],
            [
              -71.404885283212664,
              42.537054121422948
            ],
            [
              -71.404935966964587,
              42.537086797640725
            ],
            [
              -71.404920878677387,
              42.537168375816144
            ],
            [
              -71.404851255918729,
              42.53722306448082
            ],
            [
              -71.404751608176326,
              42.537249516739514
            ],
            [
              -71.404679777158648,
              42.537243907868152
            ],
            [
              -71.404621346763875,
              42.537205760394031
            ],
            [
              -71.404620366723847,
              42.537157823204652
            ],
            [
              -71.404684398270717,
              42.537097724588037
            ],
            [
              -71.404784344963801,
              42.537056456171193
            ]
          ]
        ],
        "type" : "Polygon"
      },
      "properties" : {
        "frame" : "apple",
        "hole" : 9,
        "kind" : "green"
      },
      "type" : "Feature"
    },
    {
      "geometry" : {
        "coordinates" : [
          [
            [
              -71.40852591760472,
              42.536481314257408
            ],
            [
              -71.408648773711747,
              42.536521052676811
            ],
            [
              -71.408705182539748,
              42.536429649534405
            ],
            [
              -71.408591583404558,
              42.536390646653174
            ],
            [
              -71.40852591760472,
              42.536481314257408
            ]
          ]
        ],
        "type" : "Polygon"
      },
      "properties" : {
        "frame" : "apple",
        "hole" : 10,
        "kind" : "tee"
      },
      "type" : "Feature"
    },
    {
      "geometry" : {
        "coordinates" : [
          [
            [
              -71.412478794100295,
              42.535946513203264
            ],
            [
              -71.412579156634251,
              42.535993521808727
            ],
            [
              -71.412675342120821,
              42.536025432955249
            ],
            [
              -71.412758279764589,
              42.536025866186542
            ],
            [
              -71.412816749152555,
              42.536001997941668
            ],
            [
              -71.412835718671246,
              42.535954757285673
            ],
            [
              -71.412802968689903,
              42.535895821387101
            ],
            [
              -71.412743425175293,
              42.535872033656595
            ],
            [
              -71.412604269841523,
              42.535888687799201
            ],
            [
              -71.412494546247927,
              42.535907745777862
            ],
            [
              -71.412494546247927,
              42.535907745777862
            ],
            [
              -71.412482609789564,
              42.535922197444364
            ],
            [
              -71.412478794100295,
              42.535946513203264
            ]
          ]
        ],
        "type" : "Polygon"
      },
      "properties" : {
        "frame" : "apple",
        "hole" : 10,
        "kind" : "green"
      },
      "type" : "Feature"
    },
    {
      "geometry" : {
        "coordinates" : [
          [
            [
              -71.4132981686638,
              42.535051568501657
            ],
            [
              -71.413297358946579,
              42.535121998996779
            ],
            [
              -71.41338218936653,
              42.535110595485129
            ],
            [
              -71.41338669189561,
              42.535048865829332
            ],
            [
              -71.4132981686638,
              42.535051568501657
            ]
          ]
        ],
        "type" : "Polygon"
      },
      "properties" : {
        "frame" : "apple",
        "hole" : 11,
        "kind" : "tee"
      },
      "type" : "Feature"
    },
    {
      "geometry" : {
        "coordinates" : [
          [
            [
              -71.410476686127311,
              42.535365366273609
            ],
            [
              -71.410515202428016,
              42.535434221753675
            ],
            [
              -71.410618703930481,
              42.535455214912233
            ],
            [
              -71.410781420511455,
              42.53545963271597
            ],
            [
              -71.410840415962355,
              42.535458342725995
            ],
            [
              -71.410885972723236,
              42.535424067809089
            ],
            [
              -71.410871550480636,
              42.535330378527263
            ],
            [
              -71.410827176743297,
              42.535276282654237
            ],
            [
              -71.410777157764556,
              42.535263888220982
            ],
            [
              -71.410740730159446,
              42.535265852607637
            ],
            [
              -71.410662105196778,
              42.53529878118826
            ],
            [
              -71.410580867157975,
              42.53531429996854
            ],
            [
              -71.410516136270118,
              42.535326670423871
            ],
            [
              -71.410476686127311,
              42.535365366273609
            ]
          ]
        ],
        "type" : "Polygon"
      },
      "properties" : {
        "frame" : "apple",
        "hole" : 11,
        "kind" : "green"
      },
      "type" : "Feature"
    },
    {
      "geometry" : {
        "coordinates" : [
          [
            [
              -71.411395940055769,
              42.53373321311836
            ],
            [
              -71.411486614275745,
              42.533788884868777
            ],
            [
              -71.411779341476276,
              42.533572564228088
            ],
            [
              -71.411700143015537,
              42.533519394773037
            ],
            [
              -71.411395940055769,
              42.53373321311836
            ]
          ]
        ],
        "type" : "Polygon"
      },
      "properties" : {
        "frame" : "apple",
        "hole" : 12,
        "kind" : "tee"
      },
      "type" : "Feature"
    },
    {
      "geometry" : {
        "coordinates" : [
          [
            [
              -71.415857566390855,
              42.531064936648811
            ],
            [
              -71.415830441856684,
              42.531111324723121
            ],
            [
              -71.415786703876407,
              42.531149909223323
            ],
            [
              -71.415804609507177,
              42.531201421246138
            ],
            [
              -71.415865505227032,
              42.531213197785704
            ],
            [
              -71.415974105860812,
              42.531173948248828
            ],
            [
              -71.416022035554363,
              42.531111527069072
            ],
            [
              -71.416031937612189,
              42.5310433223666
            ],
            [
              -71.415981339106665,
              42.530954305989241
            ],
            [
              -71.415893866981193,
              42.530914388563637
            ],
            [
              -71.415838621873675,
              42.530919882586055
            ],
            [
              -71.415809009550145,
              42.530965915021838
            ],
            [
              -71.415857566390855,
              42.531064936648811
            ]
          ]
        ],
        "type" : "Polygon"
      },
      "properties" : {
        "frame" : "apple",
        "hole" : 12,
        "kind" : "green"
      },
      "type" : "Feature"
    },
    {
      "geometry" : {
        "coordinates" : [
          [
            [
              -71.416189571422322,
              42.529032699961782
            ],
            [
              -71.416074184628229,
              42.529113589098245
            ],
            [
              -71.416152232030868,
              42.529154477928074
            ],
            [
              -71.416250699009197,
              42.529072823655746
            ],
            [
              -71.416189571422322,
              42.529032699961782
            ]
          ]
        ],
        "type" : "Polygon"
      },
      "properties" : {
        "frame" : "apple",
        "hole" : 13,
        "kind" : "tee"
      },
      "type" : "Feature"
    },
    {
      "geometry" : {
        "coordinates" : [
          [
            [
              -71.412732338694568,
              42.530394210339551
            ],
            [
              -71.412657496272672,
              42.530479453087835
            ],
            [
              -71.412661079085183,
              42.530532252687813
            ],
            [
              -71.412721511947609,
              42.530547731860565
            ],
            [
              -71.412787561877948,
              42.530509465409629
            ],
            [
              -71.412876605524545,
              42.530466092296273
            ],
            [
              -71.412894754872923,
              42.530441962660767
            ],
            [
              -71.41286748251656,
              42.530360817311156
            ],
            [
              -71.412820829214311,
              42.530346102957424
            ],
            [
              -71.412772198547373,
              42.530360598346356
            ],
            [
              -71.412732338694568,
              42.530394210339551
            ]
          ]
        ],
        "type" : "Polygon"
      },
      "properties" : {
        "frame" : "apple",
        "hole" : 13,
        "kind" : "green"
      },
      "type" : "Feature"
    },
    {
      "geometry" : {
        "coordinates" : [
          [
            [
              -71.410101018651943,
              42.532680272625861
            ],
            [
              -71.410038291024605,
              42.532848347398264
            ],
            [
              -71.410146579547757,
              42.532910769120086
            ],
            [
              -71.41024912878369,
              42.532875131014727
            ],
            [
              -71.410312950335083,
              42.532778212283851
            ],
            [
              -71.410349123525947,
              42.532716955840499
            ],
            [
              -71.410305204258634,
              42.532677138614829
            ],
            [
              -71.410101018651943,
              42.532680272625861
            ]
          ]
        ],
        "type" : "Polygon"
      },
      "properties" : {
        "frame" : "apple",
        "hole" : 14,
        "kind" : "green"
      },
      "type" : "Feature"
    }
  ],
  "type" : "FeatureCollection"
}